[{"OBJECT_NAME":"STARLINK-1653","OBJECT_ID":"2020-062AD","EPOCH":"2026-03-10T00:00:02.999808","MEAN_MOTION":15.59225016,"ECCENTRICITY":0.00059506,"INCLINATION":53.0453,"RA_OF_ASC_NODE":320.9315,"ARG_OF_PERICENTER":251.2648,"MEAN_ANOMALY":247.8149,"EPHEMERIS_TYPE":0,"CLASSIFICATION_TYPE":"U","NORAD_CAT_ID":46352,"ELEMENT_SET_NO":999,"REV_AT_EPOCH":583,"BSTAR":0.0018332466,"MEAN_MOTION_DOT":0.00148839,"MEAN_MOTION_DDOT":0},{"OBJECT_NAME":"OBJECT G","OBJECT_ID":"2015-049G","EPOCH":"2026-03-09T22:15:17.881920","MEAN_MOTION":15.59177625,"ECCENTRICITY":0.00051773,"INCLINATION":97.4719,"RA_OF_ASC_NODE":107.5155,"ARG_OF_PERICENTER":204.1923,"MEAN_ANOMALY":155.9091,"EPHEMERIS_TYPE":0,"CLASSIFICATION_TYPE":"U","NORAD_CAT_ID":40905,"ELEMENT_SET_NO":999,"REV_AT_EPOCH":58094,"BSTAR":0.00048107753,"MEAN_MOTION_DOT":0.0003769,"MEAN_MOTION_DDOT":0}]
